[{"OBJECT_NAME":"STARLINK-36495","OBJECT_ID":"2026-002G","EPOCH":"2026-03-09T23:13:33.742560","MEAN_MOTION":15.27629395,"ECCENTRICITY":4.737e-5,"INCLINATION":43.0015,"RA_OF_ASC_NODE":323.5054,"ARG_OF_PERICENTER":227.4963,"MEAN_ANOMALY":132.5849,"EPHEMERIS_TYPE":0,"CLASSIFICATION_TYPE":"U","NORAD_CAT_ID":67311,"ELEMENT_SET_NO":999,"REV_AT_EPOCH":1128,"BSTAR":0.0012184435,"MEAN_MOTION_DOT":0.0003347,"MEAN_MOTION_DDOT":0},{"OBJECT_NAME":"ELECTRON KICK STAGE R\/B","OBJECT_ID":"2025-061J","EPOCH":"2026-03-09T21:50:35.145600","MEAN_MOTION":15.31602074,"ECCENTRICITY":0.00402669,"INCLINATION":97.5479,"RA_OF_ASC_NODE":52.3854,"ARG_OF_PERICENTER":150.2628,"MEAN_ANOMALY":210.0914,"EPHEMERIS_TYPE":0,"CLASSIFICATION_TYPE":"U","NORAD_CAT_ID":63359,"ELEMENT_SET_NO":999,"REV_AT_EPOCH":5306,"BSTAR":0.0006963674,"MEAN_MOTION_DOT":0.00021749,"MEAN_MOTION_DDOT":0}]
